[
  {
    "name": "Авиамоторная",
    "nameEn": "Aviamotornaya",
    "lat": 55.7524574,
    "lon": 37.7201138,
    "line": "8",
    "color": "#FFCD1C",
    "lineColors": [
      "#FFCD1C"
    ]
  },
  {
    "name": "Автозаводская",
    "nameEn": "Avtozavodskaya",
    "lat": 55.7073495,
    "lon": 37.657654,
    "line": "2",
    "color": "#4FB04F",
    "lineColors": [
      "#4FB04F"
    ]
  },
  {
    "name": "Академическая",
    "nameEn": "Akademicheskaya",
    "lat": 55.6878378,
    "lon": 37.5734271,
    "line": "6",
    "color": "#F07E23",
    "lineColors": [
      "#F07E23"
    ]
  },
  {
    "name": "Александровский сад",
    "nameEn": "Aleksandrovskiy sad",
    "lat": 55.7523797,
    "lon": 37.6086632,
    "line": "4, 4А",
    "color": "#1EBCEF",
    "lineColors": [
      "#1EBCEF",
      "#1EBCEF"
    ]
  },
  {
    "name": "Алексеевская",
    "nameEn": "Alekseevskaya",
    "lat": 55.8091011,
    "lon": 37.6388112,
    "line": "6",
    "color": "#F07E23",
    "lineColors": [
      "#F07E23"
    ]
  },
  {
    "name": "Алма-Атинская",
    "nameEn": "Alma-Atinskaya",
    "lat": 55.6327731,
    "lon": 37.7658401,
    "line": "2",
    "color": "#4FB04F",
    "lineColors": [
      "#4FB04F"
    ]
  },
  {
    "name": "Алтуфьево",
    "nameEn": "Altufevo",
    "lat": 55.8979232,
    "lon": 37.5872554,
    "line": "9",
    "color": "#ADACAC",
    "lineColors": [
      "#ADACAC"
    ]
  },
  {
    "name": "Аминьевская",
    "nameEn": "Aminevskaya",
    "lat": 55.6972085,
    "lon": 37.4650619,
    "line": "11",
    "color": "#78C7C9",
    "lineColors": [
      "#78C7C9"
    ]
  },
  {
    "name": "Аннино",
    "nameEn": "Annino",
    "lat": 55.5825379,
    "lon": 37.5963676,
    "line": "9",
    "color": "#ADACAC",
    "lineColors": [
      "#ADACAC"
    ]
  },
  {
    "name": "Арбатская",
    "nameEn": "Arbatskaya",
    "lat": 55.7519104,
    "lon": 37.6006643,
    "line": "4, 4А",
    "color": "#1EBCEF",
    "lineColors": [
      "#1EBCEF",
      "#1EBCEF"
    ]
  },
  {
    "name": "Аэропорт",
    "nameEn": "Aeroport",
    "lat": 55.8003694,
    "lon": 37.5330857,
    "line": "2",
    "color": "#4FB04F",
    "lineColors": [
      "#4FB04F"
    ]
  },
  {
    "name": "Аэропорт Внуково",
    "nameEn": "Aeroport Vnukovo",
    "lat": 55.6072689,
    "lon": 37.2872008,
    "line": "8А",
    "color": "#FFCD1C",
    "lineColors": [
      "#FFCD1C"
    ]
  },
  {
    "name": "Бабушкинская",
    "nameEn": "Babushkinskaya",
    "lat": 55.8696201,
    "lon": 37.6642023,
    "line": "6",
    "color": "#F07E23",
    "lineColors": [
      "#F07E23"
    ]
  },
  {
    "name": "Багратионовская",
    "nameEn": "Bagrationovskaya",
    "lat": 55.743779,
    "lon": 37.497706,
    "line": "4",
    "color": "#1EBCEF",
    "lineColors": [
      "#1EBCEF"
    ]
  },
  {
    "name": "Баррикадная",
    "nameEn": "Barrikadnaya",
    "lat": 55.7610277,
    "lon": 37.5792463,
    "line": "7",
    "color": "#943E90",
    "lineColors": [
      "#943E90"
    ]
  },
  {
    "name": "Бауманская",
    "nameEn": "Baumanskaya",
    "lat": 55.7731186,
    "lon": 37.6803999,
    "line": "3",
    "color": "#0072BA",
    "lineColors": [
      "#0072BA"
    ]
  },
  {
    "name": "Беговая",
    "nameEn": "Begovaya",
    "lat": 55.7736576,
    "lon": 37.5466477,
    "line": "7",
    "color": "#943E90",
    "lineColors": [
      "#943E90"
    ]
  },
  {
    "name": "Беломорская",
    "nameEn": "Belomorskaya",
    "lat": 55.8651307,
    "lon": 37.4750567,
    "line": "2",
    "color": "#4FB04F",
    "lineColors": [
      "#4FB04F"
    ]
  },
  {
    "name": "Белорусская",
    "nameEn": "Belorusskaya",
    "lat": 55.7762207,
    "lon": 37.5839267,
    "line": "5",
    "color": "#A35539",
    "lineColors": [
      "#A35539"
    ]
  },
  {
    "name": "Беляево",
    "nameEn": "Belyaevo",
    "lat": 55.6427986,
    "lon": 37.5255848,
    "line": "6",
    "color": "#F07E23",
    "lineColors": [
      "#F07E23"
    ]
  },
  {
    "name": "Бибирево",
    "nameEn": "Bibirevo",
    "lat": 55.8838284,
    "lon": 37.6034891,
    "line": "9",
    "color": "#ADACAC",
    "lineColors": [
      "#ADACAC"
    ]
  },
  {
    "name": "Библиотека имени Ленина",
    "nameEn": "Biblioteka imeni Lenina",
    "lat": 55.7515247,
    "lon": 37.6102524,
    "line": "1",
    "color": "#E42313",
    "lineColors": [
      "#E42313"
    ]
  },
  {
    "name": "Битцевский парк",
    "nameEn": "Bittsevskiy park",
    "lat": 55.6001974,
    "lon": 37.5563084,
    "line": "12",
    "color": "#bac8e8",
    "lineColors": [
      "#bac8e8"
    ]
  },
  {
    "name": "Борисово",
    "nameEn": "Borisovo",
    "lat": 55.633326,
    "lon": 37.7436571,
    "line": "10",
    "color": "#BED12C",
    "lineColors": [
      "#BED12C"
    ]
  },
  {
    "name": "Боровицкая",
    "nameEn": "Borovitskaya",
    "lat": 55.7509611,
    "lon": 37.6068809,
    "line": "9",
    "color": "#ADACAC",
    "lineColors": [
      "#ADACAC"
    ]
  },
  {
    "name": "Боровское шоссе",
    "nameEn": "Borovskoe shosse",
    "lat": 55.6478104,
    "lon": 37.3703794,
    "line": "8А",
    "color": "#FFCD1C",
    "lineColors": [
      "#FFCD1C"
    ]
  },
  {
    "name": "Ботанический сад",
    "nameEn": "Botanicheskiy sad",
    "lat": 55.8448682,
    "lon": 37.6381474,
    "line": "6",
    "color": "#F07E23",
    "lineColors": [
      "#F07E23"
    ]
  },
  {
    "name": "Братиславская",
    "nameEn": "Bratislavskaya",
    "lat": 55.6597977,
    "lon": 37.7506026,
    "line": "10",
    "color": "#BED12C",
    "lineColors": [
      "#BED12C"
    ]
  },
  {
    "name": "Бульвар Адмирала Ушакова",
    "nameEn": "Bulvar Admirala Ushakova",
    "lat": 55.5454748,
    "lon": 37.5431775,
    "line": "12",
    "color": "#bac8e8",
    "lineColors": [
      "#bac8e8"
    ]
  },
  {
    "name": "Бульвар Дмитрия Донского",
    "nameEn": "Bulvar Dmitriya Donskogo",
    "lat": 55.5692699,
    "lon": 37.5767599,
    "line": "9",
    "color": "#ADACAC",
    "lineColors": [
      "#ADACAC"
    ]
  },
  {
    "name": "Бульвар Рокоссовского",
    "nameEn": "Bulvar Rokossovskogo",
    "lat": 55.8146309,
    "lon": 37.7342937,
    "line": "1",
    "color": "#E42313",
    "lineColors": [
      "#E42313"
    ]
  },
  {
    "name": "Бунинская аллея",
    "nameEn": "Buninskaya alleya",
    "lat": 55.538195,
    "lon": 37.5165068,
    "line": "12",
    "color": "#bac8e8",
    "lineColors": [
      "#bac8e8"
    ]
  },
  {
    "name": "Бутырская",
    "nameEn": "Butyrskaya",
    "lat": 55.8134624,
    "lon": 37.6026094,
    "line": "10",
    "color": "#BED12C",
    "lineColors": [
      "#BED12C"
    ]
  },
  {
    "name": "ВДНХ",
    "nameEn": "VDNKh",
    "lat": 55.8211181,
    "lon": 37.6412157,
    "line": "6",
    "color": "#F07E23",
    "lineColors": [
      "#F07E23"
    ]
  },
  {
    "name": "Вавиловская",
    "nameEn": "Vavilovskaya",
    "lat": 55.6848519,
    "lon": 37.5409758,
    "line": "16",
    "color": "#007763",
    "lineColors": [
      "#007763"
    ]
  },
  {
    "name": "Варшавская",
    "nameEn": "Varshavskaya",
    "lat": 55.6533923,
    "lon": 37.619501,
    "line": "11",
    "color": "#78C7C9",
    "lineColors": [
      "#78C7C9"
    ]
  },
  {
    "name": "Верхние Лихоборы",
    "nameEn": "Verkhnie Likhobory",
    "lat": 55.8558754,
    "lon": 37.5614598,
    "line": "10",
    "color": "#BED12C",
    "lineColors": [
      "#BED12C"
    ]
  },
  {
    "name": "Владыкино",
    "nameEn": "Vladykino",
    "lat": 55.8471642,
    "lon": 37.5900167,
    "line": "9",
    "color": "#ADACAC",
    "lineColors": [
      "#ADACAC"
    ]
  },
  {
    "name": "Водный стадион",
    "nameEn": "Vodnyy stadion",
    "lat": 55.8400336,
    "lon": 37.4865984,
    "line": "2",
    "color": "#4FB04F",
    "lineColors": [
      "#4FB04F"
    ]
  },
  {
    "name": "Войковская",
    "nameEn": "Voykovskaya",
    "lat": 55.8190183,
    "lon": 37.4979049,
    "line": "2",
    "color": "#4FB04F",
    "lineColors": [
      "#4FB04F"
    ]
  },
  {
    "name": "Волгоградский проспект",
    "nameEn": "Volgogradskiy prospekt",
    "lat": 55.7251988,
    "lon": 37.6868418,
    "line": "7",
    "color": "#943E90",
    "lineColors": [
      "#943E90"
    ]
  },
  {
    "name": "Волжская",
    "nameEn": "Volzhskaya",
    "lat": 55.6907728,
    "lon": 37.7530544,
    "line": "10",
    "color": "#BED12C",
    "lineColors": [
      "#BED12C"
    ]
  },
  {
    "name": "Волоколамская",
    "nameEn": "Volokolamskaya",
    "lat": 55.8355451,
    "lon": 37.3823333,
    "line": "3",
    "color": "#0072BA",
    "lineColors": [
      "#0072BA"
    ]
  },
  {
    "name": "Воробьёвы горы",
    "nameEn": "Vorobyovy gory",
    "lat": 55.7103953,
    "lon": 37.5591397,
    "line": "1",
    "color": "#E42313",
    "lineColors": [
      "#E42313"
    ]
  },
  {
    "name": "Воронцовская",
    "nameEn": "Vorontsovskaya",
    "lat": 55.658779,
    "lon": 37.5394151,
    "line": "11",
    "color": "#78C7C9",
    "lineColors": [
      "#78C7C9"
    ]
  },
  {
    "name": "Выхино",
    "nameEn": "Vykhino",
    "lat": 55.7156309,
    "lon": 37.8179078,
    "line": "7",
    "color": "#943E90",
    "lineColors": [
      "#943E90"
    ]
  },
  {
    "name": "Генерала Тюленева",
    "nameEn": "Generala Tyuleneva",
    "lat": 55.6262768,
    "lon": 37.4857339,
    "line": "16",
    "color": "#007763",
    "lineColors": [
      "#007763"
    ]
  },
  {
    "name": "Говорово",
    "nameEn": "Govorovo",
    "lat": 55.6596187,
    "lon": 37.4172335,
    "line": "8А",
    "color": "#FFCD1C",
    "lineColors": [
      "#FFCD1C"
    ]
  },
  {
    "name": "Давыдково",
    "nameEn": "Davydkovo",
    "lat": 55.7151485,
    "lon": 37.4517725,
    "line": "11",
    "color": "#78C7C9",
    "lineColors": [
      "#78C7C9"
    ]
  },
  {
    "name": "Деловой Центр",
    "nameEn": "Delovoy Center",
    "lat": 55.7501369,
    "lon": 37.5413162,
    "line": "4А",
    "color": "#1EBCEF",
    "lineColors": [
      "#1EBCEF"
    ]
  },
  {
    "name": "Деловой центр",
    "nameEn": "Delovoy tsentr",
    "lat": 55.7490422,
    "lon": 37.5392553,
    "line": "8А",
    "color": "#FFCD1C",
    "lineColors": [
      "#FFCD1C"
    ]
  },
  {
    "name": "Динамо",
    "nameEn": "Dinamo",
    "lat": 55.78965,
    "lon": 37.5580823,
    "line": "2",
    "color": "#4FB04F",
    "lineColors": [
      "#4FB04F"
    ]
  },
  {
    "name": "Дмитровская",
    "nameEn": "Dmitrovskaya",
    "lat": 55.8065401,
    "lon": 37.581719,
    "line": "9",
    "color": "#ADACAC",
    "lineColors": [
      "#ADACAC"
    ]
  },
  {
    "name": "Добрынинская",
    "nameEn": "Dobryninskaya",
    "lat": 55.7292208,
    "lon": 37.6243963,
    "line": "5",
    "color": "#A35539",
    "lineColors": [
      "#A35539"
    ]
  },
  {
    "name": "Домодедовская",
    "nameEn": "Domodedovskaya",
    "lat": 55.610897,
    "lon": 37.7186192,
    "line": "2",
    "color": "#4FB04F",
    "lineColors": [
      "#4FB04F"
    ]
  },
  {
    "name": "Достоевская",
    "nameEn": "Dostoevskaya",
    "lat": 55.7815285,
    "lon": 37.6149455,
    "line": "10",
    "color": "#BED12C",
    "lineColors": [
      "#BED12C"
    ]
  },
  {
    "name": "Дубровка",
    "nameEn": "Dubrovka",
    "lat": 55.7191767,
    "lon": 37.6754021,
    "line": "10",
    "color": "#BED12C",
    "lineColors": [
      "#BED12C"
    ]
  },
  {
    "name": "Жулебино",
    "nameEn": "Zhulebino",
    "lat": 55.6854737,
    "lon": 37.8561935,
    "line": "7",
    "color": "#943E90",
    "lineColors": [
      "#943E90"
    ]
  },
  {
    "name": "ЗИЛ",
    "nameEn": "ZIL",
    "lat": 55.696897,
    "lon": 37.6453088,
    "line": "16",
    "color": "#007763",
    "lineColors": [
      "#007763"
    ]
  },
  {
    "name": "Зюзино",
    "nameEn": "Zyuzino",
    "lat": 55.6558347,
    "lon": 37.5736131,
    "line": "11",
    "color": "#78C7C9",
    "lineColors": [
      "#78C7C9"
    ]
  },
  {
    "name": "Зябликово",
    "nameEn": "Zyablikovo",
    "lat": 55.6122369,
    "lon": 37.7450758,
    "line": "10",
    "color": "#BED12C",
    "lineColors": [
      "#BED12C"
    ]
  },
  {
    "name": "Измайловская",
    "nameEn": "Izmaylovskaya",
    "lat": 55.7878146,
    "lon": 37.7816479,
    "line": "3",
    "color": "#0072BA",
    "lineColors": [
      "#0072BA"
    ]
  },
  {
    "name": "Калужская",
    "nameEn": "Kaluzhskaya",
    "lat": 55.6572545,
    "lon": 37.5405703,
    "line": "6",
    "color": "#F07E23",
    "lineColors": [
      "#F07E23"
    ]
  },
  {
    "name": "Кантемировская",
    "nameEn": "Kantemirovskaya",
    "lat": 55.6357042,
    "lon": 37.6564499,
    "line": "2",
    "color": "#4FB04F",
    "lineColors": [
      "#4FB04F"
    ]
  },
  {
    "name": "Каховская",
    "nameEn": "Kakhovskaya",
    "lat": 55.6528464,
    "lon": 37.5984538,
    "line": "11",
    "color": "#78C7C9",
    "lineColors": [
      "#78C7C9"
    ]
  },
  {
    "name": "Каширская",
    "nameEn": "Kashirskaya",
    "lat": 55.6550308,
    "lon": 37.6487377,
    "line": "2",
    "color": "#4FB04F",
    "lineColors": [
      "#4FB04F"
    ]
  },
  {
    "name": "Киевская",
    "nameEn": "Kievskaya",
    "lat": 55.7447233,
    "lon": 37.5657082,
    "line": "5",
    "color": "#A35539",
    "lineColors": [
      "#A35539"
    ]
  },
  {
    "name": "Китай-город",
    "nameEn": "Kitay-gorod",
    "lat": 55.7556055,
    "lon": 37.6331968,
    "line": "6",
    "color": "#F07E23",
    "lineColors": [
      "#F07E23"
    ]
  },
  {
    "name": "Кленовый бульвар",
    "nameEn": "Klenovyy bulvar",
    "lat": 55.6744675,
    "lon": 37.6807509,
    "line": "11",
    "color": "#78C7C9",
    "lineColors": [
      "#78C7C9"
    ]
  },
  {
    "name": "Кожуховская",
    "nameEn": "Kozhukhovskaya",
    "lat": 55.707392,
    "lon": 37.6846795,
    "line": "10",
    "color": "#BED12C",
    "lineColors": [
      "#BED12C"
    ]
  },
  {
    "name": "Коломенская",
    "nameEn": "Kolomenskaya",
    "lat": 55.6784824,
    "lon": 37.6638163,
    "line": "2",
    "color": "#4FB04F",
    "lineColors": [
      "#4FB04F"
    ]
  },
  {
    "name": "Коммунарка",
    "nameEn": "Kommunarka",
    "lat": 55.5746175,
    "lon": 37.4678612,
    "line": "16",
    "color": "#007763",
    "lineColors": [
      "#007763"
    ]
  },
  {
    "name": "Комсомольская",
    "nameEn": "Komsomolskaya",
    "lat": 55.7752557,
    "lon": 37.6559741,
    "line": "1",
    "color": "#E42313",
    "lineColors": [
      "#E42313"
    ]
  },
  {
    "name": "Коньково",
    "nameEn": "Konkovo",
    "lat": 55.6331677,
    "lon": 37.518881,
    "line": "6",
    "color": "#F07E23",
    "lineColors": [
      "#F07E23"
    ]
  },
  {
    "name": "Корниловская",
    "nameEn": "Kornilovskaya",
    "lat": 55.5984213,
    "lon": 37.47888,
    "line": "16",
    "color": "#007763",
    "lineColors": [
      "#007763"
    ]
  },
  {
    "name": "Косино",
    "nameEn": "Kosino",
    "lat": 55.7033509,
    "lon": 37.8510366,
    "line": "15",
    "color": "#F088B6",
    "lineColors": [
      "#F088B6"
    ]
  },
  {
    "name": "Котельники",
    "nameEn": "Kotelniki",
    "lat": 55.6741654,
    "lon": 37.8584381,
    "line": "7",
    "color": "#943E90",
    "lineColors": [
      "#943E90"
    ]
  },
  {
    "name": "Красногвардейская",
    "nameEn": "Krasnogvardeyskaya",
    "lat": 55.6137516,
    "lon": 37.7444128,
    "line": "2",
    "color": "#4FB04F",
    "lineColors": [
      "#4FB04F"
    ]
  },
  {
    "name": "Краснопресненская",
    "nameEn": "Krasnopresnenskaya",
    "lat": 55.7611801,
    "lon": 37.5775083,
    "line": "5",
    "color": "#A35539",
    "lineColors": [
      "#A35539"
    ]
  },
  {
    "name": "Красносельская",
    "nameEn": "Krasnoselskaya",
    "lat": 55.7803907,
    "lon": 37.6675951,
    "line": "1",
    "color": "#E42313",
    "lineColors": [
      "#E42313"
    ]
  },
  {
    "name": "Красные Ворота",
    "nameEn": "Krasnye Vorota",
    "lat": 55.7691111,
    "lon": 37.6488733,
    "line": "1",
    "color": "#E42313",
    "lineColors": [
      "#E42313"
    ]
  },
  {
    "name": "Крестьянская Застава",
    "nameEn": "Krestyanskaya Zastava",
    "lat": 55.733322,
    "lon": 37.6675035,
    "line": "10",
    "color": "#BED12C",
    "lineColors": [
      "#BED12C"
    ]
  },
  {
    "name": "Кропоткинская",
    "nameEn": "Kropotkinskaya",
    "lat": 55.7454796,
    "lon": 37.6036755,
    "line": "1",
    "color": "#E42313",
    "lineColors": [
      "#E42313"
    ]
  },
  {
    "name": "Крылатское",
    "nameEn": "Krylatskoe",
    "lat": 55.7565916,
    "lon": 37.408242,
    "line": "3",
    "color": "#0072BA",
    "lineColors": [
      "#0072BA"
    ]
  },
  {
    "name": "Крымская",
    "nameEn": "Krymskaya",
    "lat": 55.6896722,
    "lon": 37.6093891,
    "line": "16",
    "color": "#007763",
    "lineColors": [
      "#007763"
    ]
  },
  {
    "name": "Кузнецкий Мост",
    "nameEn": "Kuznetskiy Most",
    "lat": 55.7606881,
    "lon": 37.6260336,
    "line": "7",
    "color": "#943E90",
    "lineColors": [
      "#943E90"
    ]
  },
  {
    "name": "Кузьминки",
    "nameEn": "Kuzminki",
    "lat": 55.7055591,
    "lon": 37.7657559,
    "line": "7",
    "color": "#943E90",
    "lineColors": [
      "#943E90"
    ]
  },
  {
    "name": "Кунцевская",
    "nameEn": "Kuntsevskaya",
    "lat": 55.7306986,
    "lon": 37.4460135,
    "line": "3",
    "color": "#0072BA",
    "lineColors": [
      "#0072BA"
    ]
  },
  {
    "name": "Курская",
    "nameEn": "Kurskaya",
    "lat": 55.7581156,
    "lon": 37.6583103,
    "line": "3",
    "color": "#0072BA",
    "lineColors": [
      "#0072BA"
    ]
  },
  {
    "name": "Кутузовская",
    "nameEn": "Kutuzovskaya",
    "lat": 55.7400187,
    "lon": 37.5343388,
    "line": "4",
    "color": "#1EBCEF",
    "lineColors": [
      "#1EBCEF"
    ]
  },
  {
    "name": "Ленинский проспект",
    "nameEn": "Leninskiy prospekt",
    "lat": 55.7076562,
    "lon": 37.5861185,
    "line": "6",
    "color": "#F07E23",
    "lineColors": [
      "#F07E23"
    ]
  },
  {
    "name": "Лермонтовский проспект",
    "nameEn": "Lermontovskiy prospekt",
    "lat": 55.7015795,
    "lon": 37.8518947,
    "line": "7",
    "color": "#943E90",
    "lineColors": [
      "#943E90"
    ]
  },
  {
    "name": "Лесопарковая",
    "nameEn": "Lesoparkovaya",
    "lat": 55.582147,
    "lon": 37.5769155,
    "line": "12",
    "color": "#bac8e8",
    "lineColors": [
      "#bac8e8"
    ]
  },
  {
    "name": "Лефортово",
    "nameEn": "Lefortovo",
    "lat": 55.7647277,
    "lon": 37.7066197,
    "line": "11",
    "color": "#78C7C9",
    "lineColors": [
      "#78C7C9"
    ]
  },
  {
    "name": "Лианозово",
    "nameEn": "Lianozovo",
    "lat": 55.8981258,
    "lon": 37.5445614,
    "line": "10",
    "color": "#BED12C",
    "lineColors": [
      "#BED12C"
    ]
  },
  {
    "name": "Ломоносовский проспект",
    "nameEn": "Lomonosovskiy prospekt",
    "lat": 55.707187,
    "lon": 37.5161293,
    "line": "8А",
    "color": "#FFCD1C",
    "lineColors": [
      "#FFCD1C"
    ]
  },
  {
    "name": "Лубянка",
    "nameEn": "Lubyanka",
    "lat": 55.759768,
    "lon": 37.6279292,
    "line": "1",
    "color": "#E42313",
    "lineColors": [
      "#E42313"
    ]
  },
  {
    "name": "Лухмановская",
    "nameEn": "Lukhmanovskaya",
    "lat": 55.7085251,
    "lon": 37.8998529,
    "line": "15",
    "color": "#F088B6",
    "lineColors": [
      "#F088B6"
    ]
  },
  {
    "name": "Люблино",
    "nameEn": "Lyublino",
    "lat": 55.6757425,
    "lon": 37.7618074,
    "line": "10",
    "color": "#BED12C",
    "lineColors": [
      "#BED12C"
    ]
  },
  {
    "name": "Марксистская",
    "nameEn": "Marksistskaya",
    "lat": 55.7412421,
    "lon": 37.653495,
    "line": "8",
    "color": "#FFCD1C",
    "lineColors": [
      "#FFCD1C"
    ]
  },
  {
    "name": "Марьина Роща",
    "nameEn": "Marina Roshcha",
    "lat": 55.795521,
    "lon": 37.6161302,
    "line": "10",
    "color": "#BED12C",
    "lineColors": [
      "#BED12C"
    ]
  },
  {
    "name": "Марьино",
    "nameEn": "Marino",
    "lat": 55.6500044,
    "lon": 37.7430454,
    "line": "10",
    "color": "#BED12C",
    "lineColors": [
      "#BED12C"
    ]
  },
  {
    "name": "Маяковская",
    "nameEn": "Mayakovskaya",
    "lat": 55.7701166,
    "lon": 37.5949917,
    "line": "2",
    "color": "#4FB04F",
    "lineColors": [
      "#4FB04F"
    ]
  },
  {
    "name": "Медведково",
    "nameEn": "Medvedkovo",
    "lat": 55.8871831,
    "lon": 37.6614357,
    "line": "6",
    "color": "#F07E23",
    "lineColors": [
      "#F07E23"
    ]
  },
  {
    "name": "Менделеевская",
    "nameEn": "Mendeleevskaya",
    "lat": 55.7808733,
    "lon": 37.6019012,
    "line": "9",
    "color": "#ADACAC",
    "lineColors": [
      "#ADACAC"
    ]
  },
  {
    "name": "Минская",
    "nameEn": "Minskaya",
    "lat": 55.72476,
    "lon": 37.4967469,
    "line": "8А",
    "color": "#FFCD1C",
    "lineColors": [
      "#FFCD1C"
    ]
  },
  {
    "name": "Митино",
    "nameEn": "Mitino",
    "lat": 55.8461116,
    "lon": 37.3615145,
    "line": "3",
    "color": "#0072BA",
    "lineColors": [
      "#0072BA"
    ]
  },
  {
    "name": "Мичуринский проспект",
    "nameEn": "Michurinskiy prospekt",
    "lat": 55.6893827,
    "lon": 37.4827307,
    "line": "8А",
    "color": "#FFCD1C",
    "lineColors": [
      "#FFCD1C"
    ]
  },
  {
    "name": "Мнёвники",
    "nameEn": "Mnyovniki",
    "lat": 55.7611672,
    "lon": 37.4715131,
    "line": "11",
    "color": "#78C7C9",
    "lineColors": [
      "#78C7C9"
    ]
  },
  {
    "name": "Молодёжная",
    "nameEn": "Molodyozhnaya",
    "lat": 55.740801,
    "lon": 37.4170028,
    "line": "3",
    "color": "#0072BA",
    "lineColors": [
      "#0072BA"
    ]
  },
  {
    "name": "Москва-Сити",
    "nameEn": "Moscow-City",
    "lat": 55.7483638,
    "lon": 37.534237,
    "line": "4А",
    "color": "#1EBCEF",
    "lineColors": [
      "#1EBCEF"
    ]
  },
  {
    "name": "Мякинино",
    "nameEn": "Myakinino",
    "lat": 55.8252012,
    "lon": 37.3853552,
    "line": "3",
    "color": "#0072BA",
    "lineColors": [
      "#0072BA"
    ]
  },
  {
    "name": "Нагатинская",
    "nameEn": "Nagatinskaya",
    "lat": 55.6829892,
    "lon": 37.622316,
    "line": "9",
    "color": "#ADACAC",
    "lineColors": [
      "#ADACAC"
    ]
  },
  {
    "name": "Нагатинский Затон",
    "nameEn": "Nagatinskiy Zaton",
    "lat": 55.6843473,
    "lon": 37.7042922,
    "line": "11",
    "color": "#78C7C9",
    "lineColors": [
      "#78C7C9"
    ]
  },
  {
    "name": "Нагорная",
    "nameEn": "Nagornaya",
    "lat": 55.6719609,
    "lon": 37.6101763,
    "line": "9",
    "color": "#ADACAC",
    "lineColors": [
      "#ADACAC"
    ]
  },
  {
    "name": "Народное Ополчение",
    "nameEn": "Narodnoe Opolchenie",
    "lat": 55.7756682,
    "lon": 37.4857373,
    "line": "11",
    "color": "#78C7C9",
    "lineColors": [
      "#78C7C9"
    ]
  },
  {
    "name": "Нахимовский проспект",
    "nameEn": "Nakhimovskiy prospekt",
    "lat": 55.6626792,
    "lon": 37.6055396,
    "line": "9",
    "color": "#ADACAC",
    "lineColors": [
      "#ADACAC"
    ]
  },
  {
    "name": "Некрасовка",
    "nameEn": "Nekrasovka",
    "lat": 55.7028937,
    "lon": 37.9283274,
    "line": "15",
    "color": "#F088B6",
    "lineColors": [
      "#F088B6"
    ]
  },
  {
    "name": "Нижегородская",
    "nameEn": "Nizhegorodskaya",
    "lat": 55.7320091,
    "lon": 37.7300651,
    "line": "11",
    "color": "#78C7C9",
    "lineColors": [
      "#78C7C9"
    ]
  },
  {
    "name": "Новаторская",
    "nameEn": "Novatorskaya",
    "lat": 55.6701186,
    "lon": 37.5218622,
    "line": "11",
    "color": "#78C7C9",
    "lineColors": [
      "#78C7C9"
    ]
  },
  {
    "name": "Новогиреево",
    "nameEn": "Novogireevo",
    "lat": 55.751714,
    "lon": 37.8167147,
    "line": "8",
    "color": "#FFCD1C",
    "lineColors": [
      "#FFCD1C"
    ]
  },
  {
    "name": "Новокосино",
    "nameEn": "Novokosino",
    "lat": 55.7450231,
    "lon": 37.8638087,
    "line": "8",
    "color": "#FFCD1C",
    "lineColors": [
      "#FFCD1C"
    ]
  },
  {
    "name": "Новокузнецкая",
    "nameEn": "Novokuznetskaya",
    "lat": 55.741418,
    "lon": 37.6293683,
    "line": "2",
    "color": "#4FB04F",
    "lineColors": [
      "#4FB04F"
    ]
  },
  {
    "name": "Новомосковская",
    "nameEn": "Novomoskovskaya",
    "lat": 55.5605211,
    "lon": 37.4678995,
    "line": "1",
    "color": "#E42313",
    "lineColors": [
      "#E42313"
    ]
  },
  {
    "name": "Новопеределкино",
    "nameEn": "Novoperedelkino",
    "lat": 55.6396763,
    "lon": 37.355026,
    "line": "8А",
    "color": "#FFCD1C",
    "lineColors": [
      "#FFCD1C"
    ]
  },
  {
    "name": "Новослободская",
    "nameEn": "Novoslobodskaya",
    "lat": 55.7797408,
    "lon": 37.6035173,
    "line": "5",
    "color": "#A35539",
    "lineColors": [
      "#A35539"
    ]
  },
  {
    "name": "Новоясеневская",
    "nameEn": "Novoyasenevskaya",
    "lat": 55.60095,
    "lon": 37.5540709,
    "line": "6",
    "color": "#F07E23",
    "lineColors": [
      "#F07E23"
    ]
  },
  {
    "name": "Новые Черёмушки",
    "nameEn": "Novye Cheryomushki",
    "lat": 55.6703086,
    "lon": 37.5546029,
    "line": "6",
    "color": "#F07E23",
    "lineColors": [
      "#F07E23"
    ]
  },
  {
    "name": "Озёрная",
    "nameEn": "Ozyornaya",
    "lat": 55.670558,
    "lon": 37.4486654,
    "line": "8А",
    "color": "#FFCD1C",
    "lineColors": [
      "#FFCD1C"
    ]
  },
  {
    "name": "Окружная",
    "nameEn": "Okruzhnaya",
    "lat": 55.8460137,
    "lon": 37.5736556,
    "line": "10",
    "color": "#BED12C",
    "lineColors": [
      "#BED12C"
    ]
  },
  {
    "name": "Окская",
    "nameEn": "Okskaya",
    "lat": 55.7183543,
    "lon": 37.7817861,
    "line": "15",
    "color": "#F088B6",
    "lineColors": [
      "#F088B6"
    ]
  },
  {
    "name": "Октябрьская",
    "nameEn": "Oktyabrskaya",
    "lat": 55.7298759,
    "lon": 37.6094998,
    "line": "5",
    "color": "#A35539",
    "lineColors": [
      "#A35539"
    ]
  },
  {
    "name": "Октябрьское Поле",
    "nameEn": "Oktyabrskoe Pole",
    "lat": 55.7934031,
    "lon": 37.4938635,
    "line": "7",
    "color": "#943E90",
    "lineColors": [
      "#943E90"
    ]
  },
  {
    "name": "Ольховая",
    "nameEn": "Olkhovaya",
    "lat": 55.5687176,
    "lon": 37.4591681,
    "line": "1",
    "color": "#E42313",
    "lineColors": [
      "#E42313"
    ]
  },
  {
    "name": "Орехово",
    "nameEn": "Orekhovo",
    "lat": 55.6131071,
    "lon": 37.6948906,
    "line": "2",
    "color": "#4FB04F",
    "lineColors": [
      "#4FB04F"
    ]
  },
  {
    "name": "Отрадное",
    "nameEn": "Otradnoe",
    "lat": 55.8632165,
    "lon": 37.604566,
    "line": "9",
    "color": "#ADACAC",
    "lineColors": [
      "#ADACAC"
    ]
  },
  {
    "name": "Охотный Ряд",
    "nameEn": "Okhotnyy Ryad",
    "lat": 55.7578477,
    "lon": 37.6163676,
    "line": "1",
    "color": "#E42313",
    "lineColors": [
      "#E42313"
    ]
  },
  {
    "name": "Павелецкая",
    "nameEn": "Paveletskaya",
    "lat": 55.7324091,
    "lon": 37.6380281,
    "line": "5",
    "color": "#A35539",
    "lineColors": [
      "#A35539"
    ]
  },
  {
    "name": "Парк Культуры",
    "nameEn": "Park Kultury",
    "lat": 55.7352856,
    "lon": 37.5940414,
    "line": "1",
    "color": "#E42313",
    "lineColors": [
      "#E42313"
    ]
  },
  {
    "name": "Парк Победы",
    "nameEn": "Park Pobedy",
    "lat": 55.7363168,
    "lon": 37.5166329,
    "line": "8А",
    "color": "#FFCD1C",
    "lineColors": [
      "#FFCD1C"
    ]
  },
  {
    "name": "Партизанская",
    "nameEn": "Partizanskaya",
    "lat": 55.7886142,
    "lon": 37.7509617,
    "line": "3",
    "color": "#0072BA",
    "lineColors": [
      "#0072BA"
    ]
  },
  {
    "name": "Первомайская",
    "nameEn": "Pervomayskaya",
    "lat": 55.7946965,
    "lon": 37.7992909,
    "line": "3",
    "color": "#0072BA",
    "lineColors": [
      "#0072BA"
    ]
  },
  {
    "name": "Перово",
    "nameEn": "Perovo",
    "lat": 55.7511407,
    "lon": 37.7865341,
    "line": "8",
    "color": "#FFCD1C",
    "lineColors": [
      "#FFCD1C"
    ]
  },
  {
    "name": "Петровский парк",
    "nameEn": "Petrovskiy park",
    "lat": 55.7918868,
    "lon": 37.557192,
    "line": "11",
    "color": "#78C7C9",
    "lineColors": [
      "#78C7C9"
    ]
  },
  {
    "name": "Петровско-Разумовская",
    "nameEn": "Petrovsko-Razumovskaya",
    "lat": 55.8350169,
    "lon": 37.5742794,
    "line": "9",
    "color": "#ADACAC",
    "lineColors": [
      "#ADACAC"
    ]
  },
  {
    "name": "Печатники",
    "nameEn": "Pechatniki",
    "lat": 55.6934411,
    "lon": 37.7269005,
    "line": "10",
    "color": "#BED12C",
    "lineColors": [
      "#BED12C"
    ]
  },
  {
    "name": "Пионерская",
    "nameEn": "Pionerskaya",
    "lat": 55.7359311,
    "lon": 37.4671952,
    "line": "4",
    "color": "#1EBCEF",
    "lineColors": [
      "#1EBCEF"
    ]
  },
  {
    "name": "Планерная",
    "nameEn": "Planernaya",
    "lat": 55.8606462,
    "lon": 37.43642,
    "line": "7",
    "color": "#943E90",
    "lineColors": [
      "#943E90"
    ]
  },
  {
    "name": "Площадь Ильича",
    "nameEn": "Ploshchad Ilicha",
    "lat": 55.7470794,
    "lon": 37.6833797,
    "line": "8",
    "color": "#FFCD1C",
    "lineColors": [
      "#FFCD1C"
    ]
  },
  {
    "name": "Площадь Революции",
    "nameEn": "Ploshchad Revolyutsii",
    "lat": 55.7565371,
    "lon": 37.6217853,
    "line": "3",
    "color": "#0072BA",
    "lineColors": [
      "#0072BA"
    ]
  },
  {
    "name": "Полежаевская",
    "nameEn": "Polezhaevskaya",
    "lat": 55.7775076,
    "lon": 37.5192904,
    "line": "7",
    "color": "#943E90",
    "lineColors": [
      "#943E90"
    ]
  },
  {
    "name": "Полянка",
    "nameEn": "Polyanka",
    "lat": 55.738104,
    "lon": 37.6170396,
    "line": "9",
    "color": "#ADACAC",
    "lineColors": [
      "#ADACAC"
    ]
  },
  {
    "name": "Потапово",
    "nameEn": "Potapovo",
    "lat": 55.5525824,
    "lon": 37.4926294,
    "line": "1",
    "color": "#E42313",
    "lineColors": [
      "#E42313"
    ]
  },
  {
    "name": "Пражская",
    "nameEn": "Prazhskaya",
    "lat": 55.6123917,
    "lon": 37.604426,
    "line": "9",
    "color": "#ADACAC",
    "lineColors": [
      "#ADACAC"
    ]
  },
  {
    "name": "Преображенская площадь",
    "nameEn": "Preobrazhenskaya ploshchad",
    "lat": 55.7964285,
    "lon": 37.7153116,
    "line": "1",
    "color": "#E42313",
    "lineColors": [
      "#E42313"
    ]
  },
  {
    "name": "Прокшино",
    "nameEn": "Prokshino",
    "lat": 55.5861703,
    "lon": 37.4337938,
    "line": "1",
    "color": "#E42313",
    "lineColors": [
      "#E42313"
    ]
  },
  {
    "name": "Пролетарская",
    "nameEn": "Proletarskaya",
    "lat": 55.7317992,
    "lon": 37.6658705,
    "line": "7",
    "color": "#943E90",
    "lineColors": [
      "#943E90"
    ]
  },
  {
    "name": "Проспект Вернадского",
    "nameEn": "Prospekt Vernadskogo",
    "lat": 55.6772643,
    "lon": 37.5059863,
    "line": "1",
    "color": "#E42313",
    "lineColors": [
      "#E42313"
    ]
  },
  {
    "name": "Проспект Мира",
    "nameEn": "Prospekt Mira",
    "lat": 55.7807962,
    "lon": 37.6321497,
    "line": "6",
    "color": "#F07E23",
    "lineColors": [
      "#F07E23"
    ]
  },
  {
    "name": "Профсоюзная",
    "nameEn": "Profsoyuznaya",
    "lat": 55.6779563,
    "lon": 37.5628214,
    "line": "6",
    "color": "#F07E23",
    "lineColors": [
      "#F07E23"
    ]
  },
  {
    "name": "Пушкинская",
    "nameEn": "Pushkinskaya",
    "lat": 55.765343,
    "lon": 37.6073946,
    "line": "7",
    "color": "#943E90",
    "lineColors": [
      "#943E90"
    ]
  },
  {
    "name": "Пыхтино",
    "nameEn": "Pykhtino",
    "lat": 55.6244496,
    "lon": 37.29571,
    "line": "8А",
    "color": "#FFCD1C",
    "lineColors": [
      "#FFCD1C"
    ]
  },
  {
    "name": "Пятницкое шоссе",
    "nameEn": "Pyatnitskoe shosse",
    "lat": 55.856561,
    "lon": 37.3546819,
    "line": "3",
    "color": "#0072BA",
    "lineColors": [
      "#0072BA"
    ]
  },
  {
    "name": "Раменки",
    "nameEn": "Ramenki",
    "lat": 55.6976076,
    "lon": 37.498445,
    "line": "8А",
    "color": "#FFCD1C",
    "lineColors": [
      "#FFCD1C"
    ]
  },
  {
    "name": "Рассказовка",
    "nameEn": "Rasskazovka",
    "lat": 55.6340891,
    "lon": 37.3350572,
    "line": "8А",
    "color": "#FFCD1C",
    "lineColors": [
      "#FFCD1C"
    ]
  },
  {
    "name": "Речной вокзал",
    "nameEn": "Rechnoy vokzal",
    "lat": 55.8549987,
    "lon": 37.4761094,
    "line": "2",
    "color": "#4FB04F",
    "lineColors": [
      "#4FB04F"
    ]
  },
  {
    "name": "Рижская",
    "nameEn": "Rizhskaya",
    "lat": 55.7937201,
    "lon": 37.6363052,
    "line": "6",
    "color": "#F07E23",
    "lineColors": [
      "#F07E23"
    ]
  },
  {
    "name": "Римская",
    "nameEn": "Rimskaya",
    "lat": 55.7464136,
    "lon": 37.6830675,
    "line": "10",
    "color": "#BED12C",
    "lineColors": [
      "#BED12C"
    ]
  },
  {
    "name": "Румянцево",
    "nameEn": "Rumyantsevo",
    "lat": 55.6330195,
    "lon": 37.4415631,
    "line": "1",
    "color": "#E42313",
    "lineColors": [
      "#E42313"
    ]
  },
  {
    "name": "Рязанский проспект",
    "nameEn": "Ryazanskiy prospekt",
    "lat": 55.7169313,
    "lon": 37.7933928,
    "line": "7",
    "color": "#943E90",
    "lineColors": [
      "#943E90"
    ]
  },
  {
    "name": "Савёловская",
    "nameEn": "Savyolovskaya",
    "lat": 55.7924281,
    "lon": 37.5861026,
    "line": "11",
    "color": "#78C7C9",
    "lineColors": [
      "#78C7C9"
    ]
  },
  {
    "name": "Саларьево",
    "nameEn": "Salarevo",
    "lat": 55.6218771,
    "lon": 37.4242915,
    "line": "1",
    "color": "#E42313",
    "lineColors": [
      "#E42313"
    ]
  },
  {
    "name": "Свиблово",
    "nameEn": "Sviblovo",
    "lat": 55.8552544,
    "lon": 37.6526352,
    "line": "6",
    "color": "#F07E23",
    "lineColors": [
      "#F07E23"
    ]
  },
  {
    "name": "Севастопольская",
    "nameEn": "Sevastopolskaya",
    "lat": 55.6526737,
    "lon": 37.5983365,
    "line": "9",
    "color": "#ADACAC",
    "lineColors": [
      "#ADACAC"
    ]
  },
  {
    "name": "Селигерская",
    "nameEn": "Seligerskaya",
    "lat": 55.8662809,
    "lon": 37.5471398,
    "line": "10",
    "color": "#BED12C",
    "lineColors": [
      "#BED12C"
    ]
  },
  {
    "name": "Семёновская",
    "nameEn": "Semyonovskaya",
    "lat": 55.7834165,
    "lon": 37.7211967,
    "line": "3",
    "color": "#0072BA",
    "lineColors": [
      "#0072BA"
    ]
  },
  {
    "name": "Серпуховская",
    "nameEn": "Serpukhovskaya",
    "lat": 55.7279251,
    "lon": 37.6246795,
    "line": "9",
    "color": "#ADACAC",
    "lineColors": [
      "#ADACAC"
    ]
  },
  {
    "name": "Славянский бульвар",
    "nameEn": "Slavyanskiy bulvar",
    "lat": 55.7296548,
    "lon": 37.4707528,
    "line": "3",
    "color": "#0072BA",
    "lineColors": [
      "#0072BA"
    ]
  },
  {
    "name": "Смоленская",
    "nameEn": "Smolenskaya",
    "lat": 55.7475903,
    "lon": 37.5823176,
    "line": "3",
    "color": "#0072BA",
    "lineColors": [
      "#0072BA"
    ]
  },
  {
    "name": "Сокол",
    "nameEn": "Sokol",
    "lat": 55.8052091,
    "lon": 37.5150702,
    "line": "2",
    "color": "#4FB04F",
    "lineColors": [
      "#4FB04F"
    ]
  },
  {
    "name": "Сокольники",
    "nameEn": "Sokolniki",
    "lat": 55.7888545,
    "lon": 37.6801752,
    "line": "1",
    "color": "#E42313",
    "lineColors": [
      "#E42313"
    ]
  },
  {
    "name": "Солнцево",
    "nameEn": "Solntsevo",
    "lat": 55.6497224,
    "lon": 37.3911097,
    "line": "8А",
    "color": "#FFCD1C",
    "lineColors": [
      "#FFCD1C"
    ]
  },
  {
    "name": "Спартак",
    "nameEn": "Spartak",
    "lat": 55.8182906,
    "lon": 37.4356624,
    "line": "7",
    "color": "#943E90",
    "lineColors": [
      "#943E90"
    ]
  },
  {
    "name": "Спортивная",
    "nameEn": "Sportivnaya",
    "lat": 55.7234798,
    "lon": 37.5641012,
    "line": "1",
    "color": "#E42313",
    "lineColors": [
      "#E42313"
    ]
  },
  {
    "name": "Сретенский бульвар",
    "nameEn": "Sretenskiy bulvar",
    "lat": 55.7668902,
    "lon": 37.6400704,
    "line": "10",
    "color": "#BED12C",
    "lineColors": [
      "#BED12C"
    ]
  },
  {
    "name": "Стахановская",
    "nameEn": "Stakhanovskaya",
    "lat": 55.7270016,
    "lon": 37.7532359,
    "line": "15",
    "color": "#F088B6",
    "lineColors": [
      "#F088B6"
    ]
  },
  {
    "name": "Строгино",
    "nameEn": "Strogino",
    "lat": 55.8037637,
    "lon": 37.4031277,
    "line": "3",
    "color": "#0072BA",
    "lineColors": [
      "#0072BA"
    ]
  },
  {
    "name": "Студенческая",
    "nameEn": "Studencheskaya",
    "lat": 55.7388068,
    "lon": 37.5483954,
    "line": "4",
    "color": "#1EBCEF",
    "lineColors": [
      "#1EBCEF"
    ]
  },
  {
    "name": "Сухаревская",
    "nameEn": "Sukharevskaya",
    "lat": 55.7728891,
    "lon": 37.6310684,
    "line": "6",
    "color": "#F07E23",
    "lineColors": [
      "#F07E23"
    ]
  },
  {
    "name": "Сходненская",
    "nameEn": "Skhodnenskaya",
    "lat": 55.8504814,
    "lon": 37.4396702,
    "line": "7",
    "color": "#943E90",
    "lineColors": [
      "#943E90"
    ]
  },
  {
    "name": "Таганская",
    "nameEn": "Taganskaya",
    "lat": 55.7404132,
    "lon": 37.6517247,
    "line": "7",
    "color": "#943E90",
    "lineColors": [
      "#943E90"
    ]
  },
  {
    "name": "Тверская",
    "nameEn": "Tverskaya",
    "lat": 55.7647089,
    "lon": 37.606428,
    "line": "2",
    "color": "#4FB04F",
    "lineColors": [
      "#4FB04F"
    ]
  },
  {
    "name": "Театральная",
    "nameEn": "Teatralnaya",
    "lat": 55.7574422,
    "lon": 37.6190106,
    "line": "2",
    "color": "#4FB04F",
    "lineColors": [
      "#4FB04F"
    ]
  },
  {
    "name": "Текстильщики",
    "nameEn": "Tekstilshchiki",
    "lat": 55.7087558,
    "lon": 37.731499,
    "line": "7",
    "color": "#943E90",
    "lineColors": [
      "#943E90"
    ]
  },
  {
    "name": "Терехово",
    "nameEn": "Terekhovo",
    "lat": 55.7480388,
    "lon": 37.4596167,
    "line": "11",
    "color": "#78C7C9",
    "lineColors": [
      "#78C7C9"
    ]
  },
  {
    "name": "Технопарк",
    "nameEn": "Tekhnopark",
    "lat": 55.6936249,
    "lon": 37.6644724,
    "line": "2",
    "color": "#4FB04F",
    "lineColors": [
      "#4FB04F"
    ]
  },
  {
    "name": "Тимирязевская",
    "nameEn": "Timiryazevskaya",
    "lat": 55.8171074,
    "lon": 37.5762821,
    "line": "9",
    "color": "#ADACAC",
    "lineColors": [
      "#ADACAC"
    ]
  },
  {
    "name": "Третьяковская",
    "nameEn": "Tretyakovskaya",
    "lat": 55.7411826,
    "lon": 37.6271318,
    "line": "6",
    "color": "#F07E23",
    "lineColors": [
      "#F07E23"
    ]
  },
  {
    "name": "Тропарёво",
    "nameEn": "Troparyovo",
    "lat": 55.6458071,
    "lon": 37.4726006,
    "line": "1",
    "color": "#E42313",
    "lineColors": [
      "#E42313"
    ]
  },
  {
    "name": "Трубная",
    "nameEn": "Trubnaya",
    "lat": 55.7690586,
    "lon": 37.6194364,
    "line": "10",
    "color": "#BED12C",
    "lineColors": [
      "#BED12C"
    ]
  },
  {
    "name": "Тульская",
    "nameEn": "Tulskaya",
    "lat": 55.7086642,
    "lon": 37.6227144,
    "line": "9",
    "color": "#ADACAC",
    "lineColors": [
      "#ADACAC"
    ]
  },
  {
    "name": "Тургеневская",
    "nameEn": "Turgenevskaya",
    "lat": 55.7664987,
    "lon": 37.6372815,
    "line": "6",
    "color": "#F07E23",
    "lineColors": [
      "#F07E23"
    ]
  },
  {
    "name": "Тушинская",
    "nameEn": "Tushinskaya",
    "lat": 55.8265404,
    "lon": 37.4368643,
    "line": "7",
    "color": "#943E90",
    "lineColors": [
      "#943E90"
    ]
  },
  {
    "name": "Тютчевская",
    "nameEn": "Tyutchevskaya",
    "lat": 55.6190927,
    "lon": 37.4811766,
    "line": "16",
    "color": "#007763",
    "lineColors": [
      "#007763"
    ]
  },
  {
    "name": "Тёплый Стан",
    "nameEn": "Tyoplyy Stan",
    "lat": 55.6187972,
    "lon": 37.5081604,
    "line": "6",
    "color": "#F07E23",
    "lineColors": [
      "#F07E23"
    ]
  },
  {
    "name": "Улица 1905 года",
    "nameEn": "Ulitsa 1905 goda",
    "lat": 55.7648301,
    "lon": 37.5612541,
    "line": "7",
    "color": "#943E90",
    "lineColors": [
      "#943E90"
    ]
  },
  {
    "name": "Улица Академика Янгеля",
    "nameEn": "Ulitsa Akademika Yangelya",
    "lat": 55.5949963,
    "lon": 37.6003083,
    "line": "9",
    "color": "#ADACAC",
    "lineColors": [
      "#ADACAC"
    ]
  },
  {
    "name": "Улица Горчакова",
    "nameEn": "Ulitsa Gorchakova",
    "lat": 55.5417364,
    "lon": 37.5306627,
    "line": "12",
    "color": "#bac8e8",
    "lineColors": [
      "#bac8e8"
    ]
  },
  {
    "name": "Улица Дмитриевского",
    "nameEn": "Ulitsa Dmitrievskogo",
    "lat": 55.7101691,
    "lon": 37.8802334,
    "line": "15",
    "color": "#F088B6",
    "lineColors": [
      "#F088B6"
    ]
  },
  {
    "name": "Улица Скобелевская",
    "nameEn": "Ulitsa Skobelevskaya",
    "lat": 55.5481581,
    "lon": 37.5545886,
    "line": "12",
    "color": "#bac8e8",
    "lineColors": [
      "#bac8e8"
    ]
  },
  {
    "name": "Улица Старокачаловская",
    "nameEn": "Ulitsa Starokachalovskaya",
    "lat": 55.5690142,
    "lon": 37.5763975,
    "line": "12",
    "color": "#bac8e8",
    "lineColors": [
      "#bac8e8"
    ]
  },
  {
    "name": "Университет",
    "nameEn": "Universitet",
    "lat": 55.692741,
    "lon": 37.5331503,
    "line": "1",
    "color": "#E42313",
    "lineColors": [
      "#E42313"
    ]
  },
  {
    "name": "Университет дружбы народов",
    "nameEn": "Universitet druzhby narodov",
    "lat": 55.6479834,
    "lon": 37.5070342,
    "line": "16",
    "color": "#007763",
    "lineColors": [
      "#007763"
    ]
  },
  {
    "name": "Физтех",
    "nameEn": "Fiztekh",
    "lat": 55.921672,
    "lon": 37.5464741,
    "line": "10",
    "color": "#BED12C",
    "lineColors": [
      "#BED12C"
    ]
  },
  {
    "name": "Филатов Луг",
    "nameEn": "Filatov Lug",
    "lat": 55.601349,
    "lon": 37.4075865,
    "line": "1",
    "color": "#E42313",
    "lineColors": [
      "#E42313"
    ]
  },
  {
    "name": "Фили",
    "nameEn": "Fili",
    "lat": 55.7461511,
    "lon": 37.5148286,
    "line": "4",
    "color": "#1EBCEF",
    "lineColors": [
      "#1EBCEF"
    ]
  },
  {
    "name": "Филёвский парк",
    "nameEn": "Filyovskiy park",
    "lat": 55.7394565,
    "lon": 37.4834225,
    "line": "4",
    "color": "#1EBCEF",
    "lineColors": [
      "#1EBCEF"
    ]
  },
  {
    "name": "Фонвизинская",
    "nameEn": "Fonvizinskaya",
    "lat": 55.822978,
    "lon": 37.5877832,
    "line": "10",
    "color": "#BED12C",
    "lineColors": [
      "#BED12C"
    ]
  },
  {
    "name": "Фрунзенская",
    "nameEn": "Frunzenskaya",
    "lat": 55.726982,
    "lon": 37.5782658,
    "line": "1",
    "color": "#E42313",
    "lineColors": [
      "#E42313"
    ]
  },
  {
    "name": "Ховрино",
    "nameEn": "Khovrino",
    "lat": 55.8774655,
    "lon": 37.48111,
    "line": "2",
    "color": "#4FB04F",
    "lineColors": [
      "#4FB04F"
    ]
  },
  {
    "name": "Хорошёвская",
    "nameEn": "Khoroshyovskaya",
    "lat": 55.7766263,
    "lon": 37.5191501,
    "line": "11",
    "color": "#78C7C9",
    "lineColors": [
      "#78C7C9"
    ]
  },
  {
    "name": "ЦСКА",
    "nameEn": "TsSKA",
    "lat": 55.7865174,
    "lon": 37.5332889,
    "line": "11",
    "color": "#78C7C9",
    "lineColors": [
      "#78C7C9"
    ]
  },
  {
    "name": "Царицыно",
    "nameEn": "Tsaritsyno",
    "lat": 55.6214565,
    "lon": 37.6691454,
    "line": "2",
    "color": "#4FB04F",
    "lineColors": [
      "#4FB04F"
    ]
  },
  {
    "name": "Цветной бульвар",
    "nameEn": "Tsvetnoy bulvar",
    "lat": 55.7709026,
    "lon": 37.6177439,
    "line": "9",
    "color": "#ADACAC",
    "lineColors": [
      "#ADACAC"
    ]
  },
  {
    "name": "Черкизовская",
    "nameEn": "Cherkizovskaya",
    "lat": 55.8038799,
    "lon": 37.7449301,
    "line": "1",
    "color": "#E42313",
    "lineColors": [
      "#E42313"
    ]
  },
  {
    "name": "Чертановская",
    "nameEn": "Chertanovskaya",
    "lat": 55.6404121,
    "lon": 37.6066186,
    "line": "9",
    "color": "#ADACAC",
    "lineColors": [
      "#ADACAC"
    ]
  },
  {
    "name": "Чеховская",
    "nameEn": "Chekhovskaya",
    "lat": 55.764884,
    "lon": 37.608944,
    "line": "9",
    "color": "#ADACAC",
    "lineColors": [
      "#ADACAC"
    ]
  },
  {
    "name": "Чистые пруды",
    "nameEn": "Chistye prudy",
    "lat": 55.7659443,
    "lon": 37.6388984,
    "line": "1",
    "color": "#E42313",
    "lineColors": [
      "#E42313"
    ]
  },
  {
    "name": "Чкаловская",
    "nameEn": "Chkalovskaya",
    "lat": 55.7564813,
    "lon": 37.6571741,
    "line": "10",
    "color": "#BED12C",
    "lineColors": [
      "#BED12C"
    ]
  },
  {
    "name": "Шаболовская",
    "nameEn": "Shabolovskaya",
    "lat": 55.7199756,
    "lon": 37.6075077,
    "line": "6",
    "color": "#F07E23",
    "lineColors": [
      "#F07E23"
    ]
  },
  {
    "name": "Шипиловская",
    "nameEn": "Shipilovskaya",
    "lat": 55.6210223,
    "lon": 37.7435375,
    "line": "10",
    "color": "#BED12C",
    "lineColors": [
      "#BED12C"
    ]
  },
  {
    "name": "Шоссе Энтузиастов",
    "nameEn": "Shosse Entuziastov",
    "lat": 55.7574706,
    "lon": 37.7495021,
    "line": "8",
    "color": "#FFCD1C",
    "lineColors": [
      "#FFCD1C"
    ]
  },
  {
    "name": "Щукинская",
    "nameEn": "Shchukinskaya",
    "lat": 55.808428,
    "lon": 37.4646467,
    "line": "7",
    "color": "#943E90",
    "lineColors": [
      "#943E90"
    ]
  },
  {
    "name": "Щёлковская",
    "nameEn": "Shchyolkovskaya",
    "lat": 55.8093353,
    "lon": 37.7984695,
    "line": "3",
    "color": "#0072BA",
    "lineColors": [
      "#0072BA"
    ]
  },
  {
    "name": "Электрозаводская",
    "nameEn": "Elektrozavodskaya",
    "lat": 55.7818182,
    "lon": 37.703709,
    "line": "3",
    "color": "#0072BA",
    "lineColors": [
      "#0072BA"
    ]
  },
  {
    "name": "Юго-Восточная",
    "nameEn": "Yugo-Vostochnaya",
    "lat": 55.7050197,
    "lon": 37.8189634,
    "line": "15",
    "color": "#F088B6",
    "lineColors": [
      "#F088B6"
    ]
  },
  {
    "name": "Юго-Западная",
    "nameEn": "Yugo-Zapadnaya",
    "lat": 55.6636376,
    "lon": 37.4833174,
    "line": "1",
    "color": "#E42313",
    "lineColors": [
      "#E42313"
    ]
  },
  {
    "name": "Южная",
    "nameEn": "Yuzhnaya",
    "lat": 55.6222705,
    "lon": 37.6091287,
    "line": "9",
    "color": "#ADACAC",
    "lineColors": [
      "#ADACAC"
    ]
  },
  {
    "name": "Ясенево",
    "nameEn": "Yasenevo",
    "lat": 55.6063604,
    "lon": 37.5334429,
    "line": "6",
    "color": "#F07E23",
    "lineColors": [
      "#F07E23"
    ]
  },
  {
    "name": "Яхромская",
    "nameEn": "Yakhromskaya",
    "lat": 55.87986,
    "lon": 37.5453408,
    "line": "10",
    "color": "#BED12C",
    "lineColors": [
      "#BED12C"
    ]
  }
]